NORAD_CAT_ID,OBJECT_NAME,OBJECT_TYPE,EPOCH,MEAN_MOTION,ECCENTRICITY,INCLINATION,RA_OF_ASC_NODE,ARG_OF_PERICENTER,MEAN_ANOMALY,BSTAR,MEAN_MOTION_DOT,MEAN_MOTION_DDOT,TLE_LINE0,TLE_LINE1,TLE_LINE2,SEMIMAJOR_AXIS,PERIOD,APOGEE,PERIGEE,DECAYED
53998.0,STARLINK-5128,PAYLOAD,2024-02-04 03:11:04,15.0884348,0.0001451,53.2171,46.1218,93.225,266.8908,6.64e-05,7.69e-06,0.0,0 STARLINK-5128,1 53998U 22125AL  24035.13268886  .00000769  00000-0  66400-4 0  9994,2 53998  53.2171  46.1218 0001451  93.2250 266.8908 15.08843480 74112,6917.87,95.437,540.739,538.731,0.0
53998.0,STARLINK-5128,PAYLOAD,2024-02-04 11:07:59,15.0885281,0.0001458,53.2173,44.6358,86.3531,273.7628,0.00014423,2.009e-05,0.0,0 STARLINK-5128,1 53998U 22125AL  24035.46388161  .00002009  00000-0  14423-3 0  9995,2 53998  53.2173  44.6358 0001458  86.3531 273.7628 15.08852810 74162,6917.841,95.437,540.715,538.698,0.0
53998.0,STARLINK-5128,PAYLOAD,2024-02-04 12:43:22,15.08855048,0.0001458,53.2173,44.3384,86.7185,273.3974,0.00016409,2.326e-05,0.0,0 STARLINK-5128,1 53998U 22125AL  24035.53011951  .00002326  00000-0  16409-3 0  9991,2 53998  53.2173  44.3384 0001458  86.7185 273.3974 15.08855048 74107,6917.834,95.437,540.708,538.691,0.0
53998.0,STARLINK-5128,PAYLOAD,2024-02-04 19:04:56,15.08834395,0.0001468,53.2173,43.1493,88.4977,271.6184,4.8138e-05,4.78e-06,0.0,0 STARLINK-5128,1 53998U 22125AL  24035.79509632  .00000478  00000-0  48138-4 0  9998,2 53998  53.2173  43.1493 0001468  88.4977 271.6184 15.08834395 74212,6917.898,95.438,540.778,538.747,0.0
53998.0,STARLINK-5128,PAYLOAD,2024-02-04 22:15:42,15.0883457,0.0001488,53.2166,42.5548,88.0334,272.0829,7.5105e-05,9.07e-06,0.0,0 STARLINK-5128,1 53998U 22125AL  24035.92757300  .00000907  00000-0  75105-4 0  9991,2 53998  53.2166  42.5548 0001488  88.0334 272.0829 15.08834570 74163,6917.897,95.438,540.791,538.733,0.0
53998.0,STARLINK-5128,PAYLOAD,2024-02-05 04:37:14,15.08844027,0.0001545,53.2166,41.3655,87.108,273.0089,0.00022543,3.302e-05,0.0,0 STARLINK-5128,1 53998U 22125AL  24036.19252997  .00003302  00000-0  22543-3 0  9992,2 53998  53.2166  41.3655 0001545  87.1080 273.0089 15.08844027 74270,6917.868,95.437,540.802,538.664,0.0
53998.0,STARLINK-5128,PAYLOAD,2024-02-05 07:48:00,15.08852358,0.0001481,53.2164,40.7708,92.3256,267.7906,0.00039784,6.051e-05,0.0,0 STARLINK-5128,1 53998U 22125AL  24036.32500704  .00006051  00000-0  39784-3 0  9998,2 53998  53.2164  40.7708 0001481  92.3256 267.7906 15.08852358 74221,6917.843,95.437,540.732,538.683,0.0
53998.0,STARLINK-5128,PAYLOAD,2024-02-06 04:28:01,15.0883637,0.0001583,53.216,36.9054,84.2114,275.9058,0.00016025,2.263e-05,0.0,0 STARLINK-5128,1 53998U 22125AL  24037.18613405  .00002263  00000-0  16025-3 0  9990,2 53998  53.2160  36.9054 0001583  84.2114 275.9058 15.08836370 74421,6917.891,95.438,540.852,538.661,0.0
53998.0,STARLINK-5128,PAYLOAD,2024-02-06 09:14:11,15.08846038,0.0001561,53.2161,36.0127,95.108,265.009,0.00032299,4.857e-05,0.0,0 STARLINK-5128,1 53998U 22125AL  24037.38485148  .00004857  00000-0  32299-3 0  9995,2 53998  53.2161  36.0127 0001561  95.1080 265.0090 15.08846038 74386,6917.862,95.437,540.807,538.647,0.0
53998.0,STARLINK-5128,PAYLOAD,2024-02-07 04:18:49,15.08842954,0.0001655,53.2169,32.4426,92.9128,267.2054,0.00033698,5.08e-05,0.0,0 STARLINK-5128,1 53998U 22125AL  24038.17973438  .00005080  00000-0  33698-3 0  9990,2 53998  53.2169  32.4426 0001655  92.9128 267.2054 15.08842954 74576,6917.871,95.437,540.881,538.591,0.0
53998.0,STARLINK-5128,PAYLOAD,2024-02-07 09:04:58,15.0884986,0.0001621,53.2164,31.5488,102.3501,257.7672,0.0004169,6.355e-05,0.0,0 STARLINK-5128,1 53998U 22125AL  24038.37845123  .00006355  00000-0  41690-3 0  9998,2 53998  53.2164  31.5488 0001621 102.3501 257.7672 15.08849860 74532,6917.85,95.437,540.837,538.594,0.0
53998.0,STARLINK-5128,PAYLOAD,2024-02-07 17:01:53,15.0885088,0.0001602,53.2164,30.0612,101.4024,258.7148,0.00035501,5.368e-05,0.0,0 STARLINK-5128,1 53998U 22125AL  24038.70964983  .00005368  00000-0  35501-3 0  9998,2 53998  53.2164  30.0612 0001602 101.4024 258.7148 15.08850880 74582,6917.847,95.437,540.82,538.604,0.0
53998.0,STARLINK-5128,PAYLOAD,2024-02-08 04:09:24,15.09106671,0.0002537,53.2162,27.9782,134.0417,226.0785,0.0046151,0.00074483,0.0,0 STARLINK-5128,1 53998U 22125AL  24039.17320020  .00074483  00000-0  46151-2 0  9994,2 53998  53.2162  27.9782 0002537 134.0417 226.0785 15.09106671 74723,6917.065,95.421,540.685,537.176,0.0
53998.0,STARLINK-5128,PAYLOAD,2024-02-08 05:44:46,15.09136875,0.0001509,53.2163,27.6814,96.2562,263.8602,0.0050732,0.00082059,0.0,0 STARLINK-5128,1 53998U 22125AL  24039.23942172  .00082059  00000-0  50732-2 0  9997,2 53998  53.2163  27.6814 0001509  96.2562 263.8602 15.09136875 74732,6916.973,95.419,539.882,537.794,0.0
53998.0,STARLINK-5128,PAYLOAD,2024-02-08 15:16:50,15.09328528,0.0001242,53.2182,25.8976,102.9885,257.1246,0.0069065,0.00112897,0.0,0 STARLINK-5128,1 53998U 22125AL  24039.63669238  .00112897  00000-0  69065-2 0  9993,2 53998  53.2182  25.8976 0001242 102.9885 257.1246 15.09328528 74793,6916.388,95.407,539.112,537.394,0.0
53998.0,STARLINK-5128,PAYLOAD,2024-02-09 03:59:35,15.09460781,0.0001277,53.2169,23.5176,97.8506,262.2632,0.0061616,0.00100884,0.0,0 STARLINK-5128,1 53998U 22125AL  24040.16637828  .00100884  00000-0  61616-2 0  9990,2 53998  53.2169  23.5176 0001277  97.8506 262.2632 15.09460781 74878,6915.984,95.398,538.732,536.965,0.0
53998.0,STARLINK-5128,PAYLOAD,2024-02-09 10:20:59,15.09400109,0.0001537,53.2168,22.3268,222.9181,137.1692,0.0032891,0.00053268,0.0,0 STARLINK-5128,1 53998U 22125AL  24040.43124649  .00053268  00000-0  32891-2 0  9998,2 53998  53.2168  22.3268 0001537 222.9181 137.1692 15.09400109 74914,6916.169,95.402,539.097,536.971,0.0
53998.0,STARLINK-5128,PAYLOAD,2024-02-10 03:49:55,15.09205663,0.000164,53.2178,19.0577,29.3299,330.7785,-0.0041475,-0.00066348,0.0,0 STARLINK-5128,1 53998U 22125AL  24041.15966872 -.00066348  00000-0 -41475-2 0  9993,2 53998  53.2178  19.0577 0001640  29.3299 330.7785 15.09205663 75020,6916.763,95.414,539.762,537.494,0.0
53998.0,STARLINK-5128,PAYLOAD,2024-02-10 08:36:02,15.09124407,0.0001167,53.2177,18.1656,83.7336,276.379,-0.006073,-0.00096394,0.0,0 STARLINK-5128,1 53998U 22125AL  24041.35836204 -.00096394  00000-0 -60730-2 0  9999,2 53998  53.2177  18.1656 0001167  83.7336 276.3790 15.09124407 75057,6917.011,95.42,539.683,538.069,0.0
53998.0,STARLINK-5128,PAYLOAD,2024-02-10 22:54:23,15.09031685,0.0001086,53.2178,15.4859,93.6045,266.5072,-0.0060031,-0.00095063,0.0,0 STARLINK-5128,1 53998U 22125AL  24041.95443585 -.00095063  00000-0 -60031-2 0  9997,2 53998  53.2178  15.4859 0001086  93.6045 266.5072 15.09031685 75071,6917.295,95.425,539.911,538.408,0.0
53998.0,STARLINK-5128,PAYLOAD,2024-02-11 10:02:05,15.08901283,8.88e-05,53.2179,13.405,97.1064,263.0029,-0.0020359,-0.00032596,0.0,0 STARLINK-5128,1 53998U 22125AL  24042.41811477 -.00032596  00000-0 -20359-2 0  9999,2 53998  53.2179  13.4050 0000888  97.1064 263.0029 15.08901283 75211,6917.693,95.434,540.172,538.944,0.0
53998.0,STARLINK-5128,PAYLOAD,2024-02-11 13:12:53,15.08835091,0.0001408,53.2183,12.8152,90.4401,269.6753,-0.00014835,-2.648e-05,0.0,0 STARLINK-5128,1 53998U 22125AL  24042.55062006 -.00002648  00000-0 -14835-3 0  9998,2 53998  53.2183  12.8152 0001408  90.4401 269.6753 15.08835091 75165,6917.895,95.438,540.734,538.786,0.0
53998.0,STARLINK-5128,PAYLOAD,2024-02-12 03:31:21,15.08857766,0.0002039,53.2172,10.1357,44.529,315.5865,0.00092216,0.00014426,0.0,0 STARLINK-5128,1 53998U 22125AL  24043.14677773  .00014426  00000-0  92216-3 0  9991,2 53998  53.2172  10.1357 0002039  44.5290 315.5865 15.08857766 75324,6917.826,95.436,541.102,538.281,0.0
53998.0,STARLINK-5128,PAYLOAD,2024-02-12 08:17:30,15.0888007,0.0001481,53.2183,9.244,101.8202,258.2956,0.0021492,0.0003412,0.0,0 STARLINK-5128,1 53998U 22125AL  24043.34548904  .00034120  00000-0  21492-2 0  9996,2 53998  53.2183   9.2440 0001481 101.8202 258.2956 15.08880070 75359,6917.758,95.435,540.647,538.598,0.0
53998.0,STARLINK-5128,PAYLOAD,2024-02-13 03:22:08,15.08839739,0.0002991,53.2186,5.6623,153.6316,206.4828,0.00096681,0.00015133,0.0,0 STARLINK-5128,1 53998U 22125AL  24044.14037244  .00015133  00000-0  96681-3 0  9991,2 53998  53.2186   5.6623 0002991 153.6316 206.4828 15.08839739 75475,6917.881,95.438,541.815,537.677,0.0
53998.0,STARLINK-5128,PAYLOAD,2024-02-13 06:32:55,15.08837814,0.0001352,53.2177,5.0816,86.2991,273.8156,0.0013515,0.00021285,0.0,0 STARLINK-5128,1 53998U 22125AL  24044.27286023  .00021285  00000-0  13515-2 0  9995,2 53998  53.2177   5.0816 0001352  86.2991 273.8156 15.08837814 75499,6917.887,95.438,540.687,538.817,0.0
53998.0,STARLINK-5128,PAYLOAD,2024-02-13 14:29:51,15.08829583,0.0001671,53.218,3.595,77.1763,282.9416,0.00092113,0.00014398,0.0,0 STARLINK-5128,1 53998U 22125AL  24044.60406625  .00014398  00000-0  92113-3 0  9993,2 53998  53.2180   3.5950 0001671  77.1763 282.9416 15.08829583 75477,6917.912,95.438,540.933,538.621,0.0
53998.0,STARLINK-5128,PAYLOAD,2024-02-14 14:20:38,15.08850623,0.0001832,53.2178,359.1364,75.3337,284.7858,0.00073085,0.00011366,0.0,0 STARLINK-5128,1 53998U 22125AL  24045.59766601  .00011366  00000-0  73085-3 0  9994,2 53998  53.2178 359.1364 0001832  75.3337 284.7858 15.08850623 75625,6917.848,95.437,540.98,538.446,0.0
53998.0,STARLINK-5128,PAYLOAD,2024-02-15 03:03:43,15.08841937,0.000149,53.219,356.7532,104.0845,256.0313,0.00020079,2.909e-05,0.0,0 STARLINK-5128,1 53998U 22125AL  24046.12758531  .00002909  00000-0  20079-3 0  9995,2 53998  53.2190 356.7532 0001490 104.0845 256.0313 15.08841937 75775,6917.874,95.437,540.77,538.709,0.0
53998.0,STARLINK-5128,PAYLOAD,2024-02-15 20:32:58,15.08843348,0.0001907,53.2201,353.4823,96.6895,263.4314,0.00014683,2.05e-05,0.0,0 STARLINK-5128,1 53998U 22125AL  24046.85622781  .00002050  00000-0  14683-3 0  9993,2 53998  53.2201 353.4823 0001907  96.6895 263.4314 15.08843348 75815,6917.87,95.437,541.054,538.416,0.0
